STARLINK-35198          
1 65672U 25211W   26191.55392860  .00004139  00000+0  29051-3 0  9990
2 65672  97.2814 233.3562 0001510 103.4244 256.7152 15.05663426 45531
STARLINK-35177          
1 65673U 25211X   26191.08041792  .00005036  00000+0  35253-3 0  9992
2 65673  97.2826 232.9295 0001242 116.5522 243.5833 15.05665529 45467
STARLINK-34749          
1 65675U 25211Z   26190.35214932  .00005672  00000+0  39657-3 0  9999
2 65675  97.2819 232.2345 0000918 104.5929 255.5401 15.05660512 45356
STARLINK-35189          
1 65676U 25212A   26191.46060757  .00006505  00000+0  23160-3 0  9996
2 65676  53.1568 135.1797 0001256  83.2334 276.8810 15.30193843 45996
STARLINK-35222          
1 65677U 25212B   26191.47897176  .00014292  00000+0  43338-3 0  9992
2 65677  53.1584 134.5907 0001482 134.6902 225.4222 15.34395118 46063
STARLINK-35233          
1 65678U 25212C   26191.42190087  .00003746  00000+0  13231-3 0  9996
2 65678  53.1603 135.6545 0001267  79.5679 280.5465 15.31723109 46046
STARLINK-35205          
1 65679U 25212D   26191.26043386  .00029695  00000+0  88486-3 0  9993
2 65679  53.1490 135.3644 0003476  76.7081 283.4310 15.34455678 45976
STARLINK-35070          
1 65680U 25212E   26191.38893254  .00015606  00000+0  53677-3 0  9996
2 65680  53.1569 135.4426 0001370  76.1251 283.9902 15.30269595 46035
STARLINK-35230          
1 65681U 25212F   26191.31506205  .00026151  00000+0  78288-3 0  9999
2 65681  53.1579 134.9889 0001434  74.4848 285.6313 15.34380733 46046
STARLINK-35235          
1 65682U 25212G   26191.43642143  .00019629  00000+0  59050-3 0  9993
2 65682  53.1578 132.9041 0001020 116.9773 243.1334 15.34402820 46026
STARLINK-34886          
1 65683U 25212H   26191.35588187  .00015154  00000+0  49893-3 0  9995
2 65683  53.1580 135.2381 0001400  94.1322 265.9839 15.31710238 45980
STARLINK-34795          
1 65684U 25212J   26191.41594387  .00006129  00000+0  19237-3 0  9993
2 65684  53.1590 134.9058 0001302  96.9910 263.1241 15.34402305 45997
STARLINK-35145          
1 65685U 25212K   26191.43689493 -.00007033  00000+0 -19729-3 0  9992
2 65685  53.1578 134.3269 0001058 104.2802 255.8318 15.34389828 46003
STARLINK-35137          
1 65686U 25212L   26191.43260555  .00003295  00000+0  10865-3 0  9993
2 65686  53.1583 124.3116 0001397  79.1474 280.9686 15.34385232 46148
STARLINK-34856          
1 65687U 25212M   26190.24195656  .00013408  00000+0  44273-3 0  9998
2 65687  53.1581 140.3733 0001348  90.5305 269.5851 15.31722600 45817
STARLINK-34930          
1 65688U 25212N   26191.24871620  .00020854  00000+0  68099-3 0  9997
2 65688  53.1581 135.9903 0001243  90.1100 270.0044 15.31742978 46014
STARLINK-34790          
1 65690U 25212Q   26191.35922587  .00017619  00000+0  53144-3 0  9991
2 65690  53.1591 135.2629 0001318  90.7606 269.3548 15.34394923 45987
STARLINK-34691          
1 65691U 25212R   26191.44696791  .00008374  00000+0  29455-3 0  9993
2 65691  53.1565 125.1004 0001486 127.0604 233.0533 15.30197837 46188
STARLINK-34825          
1 65692U 25212S   26191.46635171  .00014913  00000+0  45183-3 0  9993
2 65692  53.1577 134.5092 0001200  76.5990 283.5146 15.34385544 46046
STARLINK-35060          
1 65693U 25212T   26191.32689086  .00013724  00000+0  47475-3 0  9998
2 65693  53.1561 125.7769 0001424  71.1664 288.9491 15.30192388 46163
STARLINK-34734          
1 65696U 25212W   26191.26263094  .00019230  00000+0  62880-3 0  9996
2 65696  53.1560 135.3675 0002320  83.7167 276.4099 15.31752305 46024
STARLINK-35090          
1 65698U 25212Y   26190.26024189  .00030642  00000+0  91336-3 0  9995
2 65698  53.1592 139.7793 0002530  78.8530 281.2757 15.34431899 45874
STARLINK-35086          
1 65699U 25212Z   26191.14688956 -.00000133  00000+0  74552-5 0  9998
2 65699  53.1565 136.7752 0000830 100.3705 259.7390 15.31703639 45945
STARLINK-35101          
1 65700U 25212AA  26191.37548788  .00006530  00000+0  20420-3 0  9993
2 65700  53.1592 133.2304 0000784  82.9892 277.1200 15.34405396 46018
STARLINK-35046          
1 65701U 25212AB  26191.33187618  .00023000  00000+0  68979-3 0  9993
2 65701  53.1573 135.0909 0001628  79.4543 280.6643 15.34398570 46038
