OBJECT_NAME,OBJECT_ID,EPOCH,MEAN_MOTION,ECCENTRICITY,INCLINATION,RA_OF_ASC_NODE,ARG_OF_PERICENTER,MEAN_ANOMALY,EPHEMERIS_TYPE,CLASSIFICATION_TYPE,NORAD_CAT_ID,ELEMENT_SET_NO,REV_AT_EPOCH,BSTAR,MEAN_MOTION_DOT,MEAN_MOTION_DDOT
STARLINK-35198,2025-211W,2026-07-10T13:17:39.431040,15.05663426,.00015103,97.2814,233.3562,103.4244,256.7152,0,U,65672,999,4553,.29050669E-3,.4139E-4,0
STARLINK-35177,2025-211X,2026-07-10T01:55:48.108288,15.05665529,.00012429,97.2826,232.9295,116.5522,243.5833,0,U,65673,999,4546,.35252967E-3,.5036E-4,0
STARLINK-34749,2025-211Z,2026-07-09T08:27:05.701248,15.05660512,.00009182,97.2819,232.2345,104.5929,255.5401,0,U,65675,999,4535,.39657207E-3,.5672E-4,0
STARLINK-35189,2025-212A,2026-07-10T11:03:16.494048,15.30193843,.00012568,53.1568,135.1797,83.2334,276.8810,0,U,65676,999,4599,.23159747E-3,.6505E-4,0
STARLINK-35222,2025-212B,2026-07-10T11:29:43.160064,15.34395118,.00014822,53.1584,134.5907,134.6902,225.4222,0,U,65677,999,4606,.43337654E-3,.14292E-3,0
STARLINK-35233,2025-212C,2026-07-10T10:07:32.235168,15.31723109,.00012676,53.1603,135.6545,79.5679,280.5465,0,U,65678,999,4604,.13231104E-3,.3746E-4,0
STARLINK-35205,2025-212D,2026-07-10T06:15:01.485504,15.34455678,.00034765,53.1490,135.3644,76.7081,283.4310,0,U,65679,999,4597,.88486011E-3,.29695E-3,0
STARLINK-35070,2025-212E,2026-07-10T09:20:03.771456,15.30269595,.00013709,53.1569,135.4426,76.1251,283.9902,0,U,65680,999,4603,.53677154E-3,.15606E-3,0
STARLINK-35230,2025-212F,2026-07-10T07:33:41.361120,15.34380733,.00014343,53.1579,134.9889,74.4848,285.6313,0,U,65681,999,4604,.78288417E-3,.26151E-3,0
STARLINK-35235,2025-212G,2026-07-10T10:28:26.811552,15.34402820,.00010204,53.1578,132.9041,116.9773,243.1334,0,U,65682,999,4602,.590501E-3,.19629E-3,0
STARLINK-34886,2025-212H,2026-07-10T08:32:28.193568,15.31710238,.00014008,53.1580,135.2381,94.1322,265.9839,0,U,65683,999,4598,.49893105E-3,.15154E-3,0
STARLINK-34795,2025-212J,2026-07-10T09:58:57.550368,15.34402305,.00013027,53.1590,134.9058,96.9910,263.1241,0,U,65684,999,4599,.19237318E-3,.6129E-4,0
STARLINK-35145,2025-212K,2026-07-10T10:29:07.721952,15.34389828,.00010588,53.1578,134.3269,104.2802,255.8318,0,U,65685,999,4600,-.19729003E-3,-.7033E-4,0
STARLINK-35137,2025-212L,2026-07-10T10:22:57.119520,15.34385232,.00013977,53.1583,124.3116,79.1474,280.9686,0,U,65686,999,4614,.10865047E-3,.3295E-4,0
STARLINK-34856,2025-212M,2026-07-09T05:48:25.046784,15.31722600,.00013487,53.1581,140.3733,90.5305,269.5851,0,U,65687,999,4581,.4427304E-3,.13408E-3,0
STARLINK-34930,2025-212N,2026-07-10T05:58:09.079680,15.31742978,.00012437,53.1581,135.9903,90.1100,270.0044,0,U,65688,999,4601,.68099317E-3,.20854E-3,0
STARLINK-34790,2025-212Q,2026-07-10T08:37:17.115168,15.34394923,.00013186,53.1591,135.2629,90.7606,269.3548,0,U,65690,999,4598,.53144483E-3,.17619E-3,0
STARLINK-34691,2025-212R,2026-07-10T10:43:38.027424,15.30197837,.00014861,53.1565,125.1004,127.0604,233.0533,0,U,65691,999,4618,.29454644E-3,.8374E-4,0
STARLINK-34825,2025-212S,2026-07-10T11:11:32.788608,15.34385544,.00012001,53.1577,134.5092,76.5990,283.5146,0,U,65692,999,4604,.45182693E-3,.14913E-3,0
STARLINK-35060,2025-212T,2026-07-10T07:50:43.370304,15.30192388,.0001424,53.1561,125.7769,71.1664,288.9491,0,U,65693,999,4616,.47475176E-3,.13724E-3,0
STARLINK-34734,2025-212W,2026-07-10T06:18:11.313216,15.31752305,.00023204,53.1560,135.3675,83.7167,276.4099,0,U,65696,999,4602,.62879933E-3,.1923E-3,0
STARLINK-35090,2025-212Y,2026-07-09T06:14:44.899296,15.34431899,.00025303,53.1592,139.7793,78.8530,281.2757,0,U,65698,999,4587,.91336095E-3,.30642E-3,0
STARLINK-35086,2025-212Z,2026-07-10T03:31:31.257984,15.31703639,.00008304,53.1565,136.7752,100.3705,259.7390,0,U,65699,999,4594,.7455187E-5,-.133E-5,0
STARLINK-35101,2025-212AA,2026-07-10T09:00:42.152832,15.34405396,.00007848,53.1592,133.2304,82.9892,277.1200,0,U,65700,999,4601,.20420086E-3,.653E-4,0
STARLINK-35046,2025-212AB,2026-07-10T07:57:54.101952,15.34398570,.00016284,53.1573,135.0909,79.4543,280.6643,0,U,65701,999,4603,.68979111E-3,.23E-3,0
